ISS OBJECT XW           
1 66910U 98067XW  26114.26231941  .00329408  00000+0  11556-2 0  9999
2 66910  51.6161 190.3580 0011369 348.6087  11.4658 15.87708138 22373
ISS OBJECT XY           
1 66912U 98067XY  26113.49733468  .00107917  00000+0  74908-3 0  9996
2 66912  51.6240 198.8303 0007681 342.2019  17.8710 15.73570870 22189
KNACKSAT-2              
1 67683U 98067XZ  26113.49374211  .00031544  00000+0  45837-3 0  9990
2 67683  51.6295 208.5952 0012187 355.0589   5.0280 15.55418675 11751
CORAL                   
1 67684U 98067YA  26114.29448556  .00082525  00000+0  90695-3 0  9991
2 67684  51.6262 202.6872 0016175 351.4326   8.6389 15.62306705 11906
GXIBA-1                 
1 67685U 98067YB  26113.53667161  .00036665  00000+0  51520-3 0  9991
2 67685  51.6288 208.1315 0014104 352.3128   7.7645 15.56223970 11762
UITMSAT-2               
1 67686U 98067YC  26113.50104836  .00047134  00000+0  62362-3 0  9993
2 67686  51.6293 207.8963 0011123 333.0187  27.0225 15.57768716 11765
HMU-SAT2                
1 67687U 98067YD  26113.54648920  .00033817  00000+0  48278-3 0  9998
2 67687  51.6304 208.2037 0010433 334.8252  25.2229 15.55886902 11682
LEOPARD                 
1 67688U 98067YE  26114.28742320  .00042917  00000+0  58241-3 0  9992
2 67688  51.6296 204.1478 0010756 336.4949  23.5550 15.57136572 11801
CREW DRAGON 12          
1 67796U 26031A   26113.61927547  .00009382  00000+0  17870-3 0  9998
2 67796  51.6319 210.1816 0006828 342.1779  17.8969 15.48913482563434
PROGRESS-MS 33          
1 68319U 26058A   26113.61927547  .00009382  00000+0  17870-3 0  9999
2 68319  51.6319 210.1816 0006828 342.1779  17.8969 15.48913482  4942
CYGNUS NG-24            
1 68689U 26079A   26113.61927547  .00009382  00000+0  17870-3 0  9992
2 68689  51.6319 210.1816 0006828 342.1779  17.8969 15.48913482  1916
