[{"OBJECT_NAME":"ISS OBJECT XW","OBJECT_ID":"1998-067XW","EPOCH":"2026-04-24T06:17:44.397024","MEAN_MOTION":15.87708138,"ECCENTRICITY":0.0011369,"INCLINATION":51.6161,"RA_OF_ASC_NODE":190.358,"ARG_OF_PERICENTER":348.6087,"MEAN_ANOMALY":11.4658,"EPHEMERIS_TYPE":0,"CLASSIFICATION_TYPE":"U","NORAD_CAT_ID":66910,"ELEMENT_SET_NO":999,"REV_AT_EPOCH":2237,"BSTAR":0.0011555602,"MEAN_MOTION_DOT":0.00329408,"MEAN_MOTION_DDOT":0},{"OBJECT_NAME":"ISS OBJECT XY","OBJECT_ID":"1998-067XY","EPOCH":"2026-04-23T11:56:09.716352","MEAN_MOTION":15.7357087,"ECCENTRICITY":0.00076814,"INCLINATION":51.624,"RA_OF_ASC_NODE":198.8303,"ARG_OF_PERICENTER":342.2019,"MEAN_ANOMALY":17.871,"EPHEMERIS_TYPE":0,"CLASSIFICATION_TYPE":"U","NORAD_CAT_ID":66912,"ELEMENT_SET_NO":999,"REV_AT_EPOCH":2218,"BSTAR":0.00074907516,"MEAN_MOTION_DOT":0.00107917,"MEAN_MOTION_DDOT":0},{"OBJECT_NAME":"KNACKSAT-2","OBJECT_ID":"1998-067XZ","EPOCH":"2026-04-23T11:50:59.318304","MEAN_MOTION":15.55418675,"ECCENTRICITY":0.00121877,"INCLINATION":51.6295,"RA_OF_ASC_NODE":208.5952,"ARG_OF_PERICENTER":355.0589,"MEAN_ANOMALY":5.028,"EPHEMERIS_TYPE":0,"CLASSIFICATION_TYPE":"U","NORAD_CAT_ID":67683,"ELEMENT_SET_NO":999,"REV_AT_EPOCH":1175,"BSTAR":0.0004583693,"MEAN_MOTION_DOT":0.00031544,"MEAN_MOTION_DDOT":0},{"OBJECT_NAME":"CORAL","OBJECT_ID":"1998-067YA","EPOCH":"2026-04-24T07:04:03.552384","MEAN_MOTION":15.62306705,"ECCENTRICITY":0.00161758,"INCLINATION":51.6262,"RA_OF_ASC_NODE":202.6872,"ARG_OF_PERICENTER":351.4326,"MEAN_ANOMALY":8.6389,"EPHEMERIS_TYPE":0,"CLASSIFICATION_TYPE":"U","NORAD_CAT_ID":67684,"ELEMENT_SET_NO":999,"REV_AT_EPOCH":1190,"BSTAR":0.00090694537,"MEAN_MOTION_DOT":0.00082525,"MEAN_MOTION_DDOT":0},{"OBJECT_NAME":"GXIBA-1","OBJECT_ID":"1998-067YB","EPOCH":"2026-04-23T12:52:48.427104","MEAN_MOTION":15.5622397,"ECCENTRICITY":0.00141046,"INCLINATION":51.6288,"RA_OF_ASC_NODE":208.1315,"ARG_OF_PERICENTER":352.3128,"MEAN_ANOMALY":7.7645,"EPHEMERIS_TYPE":0,"CLASSIFICATION_TYPE":"U","NORAD_CAT_ID":67685,"ELEMENT_SET_NO":999,"REV_AT_EPOCH":1176,"BSTAR":0.0005152021,"MEAN_MOTION_DOT":0.00036665,"MEAN_MOTION_DDOT":0},{"OBJECT_NAME":"UITMSAT-2","OBJECT_ID":"1998-067YC","EPOCH":"2026-04-23T12:01:30.578304","MEAN_MOTION":15.57768716,"ECCENTRICITY":0.00111232,"INCLINATION":51.6293,"RA_OF_ASC_NODE":207.8963,"ARG_OF_PERICENTER":333.0187,"MEAN_ANOMALY":27.0225,"EPHEMERIS_TYPE":0,"CLASSIFICATION_TYPE":"U","NORAD_CAT_ID":67686,"ELEMENT_SET_NO":999,"REV_AT_EPOCH":1176,"BSTAR":0.00062362365,"MEAN_MOTION_DOT":0.00047134,"MEAN_MOTION_DDOT":0},{"OBJECT_NAME":"HMU-SAT2","OBJECT_ID":"1998-067YD","EPOCH":"2026-04-23T13:06:56.666880","MEAN_MOTION":15.55886902,"ECCENTRICITY":0.00104337,"INCLINATION":51.6304,"RA_OF_ASC_NODE":208.2037,"ARG_OF_PERICENTER":334.8252,"MEAN_ANOMALY":25.2229,"EPHEMERIS_TYPE":0,"CLASSIFICATION_TYPE":"U","NORAD_CAT_ID":67687,"ELEMENT_SET_NO":999,"REV_AT_EPOCH":1168,"BSTAR":0.00048277919,"MEAN_MOTION_DOT":0.00033817,"MEAN_MOTION_DDOT":0},{"OBJECT_NAME":"LEOPARD","OBJECT_ID":"1998-067YE","EPOCH":"2026-04-24T06:53:53.364480","MEAN_MOTION":15.57136572,"ECCENTRICITY":0.00107566,"INCLINATION":51.6296,"RA_OF_ASC_NODE":204.1478,"ARG_OF_PERICENTER":336.4949,"MEAN_ANOMALY":23.555,"EPHEMERIS_TYPE":0,"CLASSIFICATION_TYPE":"U","NORAD_CAT_ID":67688,"ELEMENT_SET_NO":999,"REV_AT_EPOCH":1180,"BSTAR":0.00058240771,"MEAN_MOTION_DOT":0.00042917,"MEAN_MOTION_DDOT":0},{"OBJECT_NAME":"CREW DRAGON 12","OBJECT_ID":"2026-031A","EPOCH":"2026-04-23T14:51:45.400608","MEAN_MOTION":15.48913482,"ECCENTRICITY":0.0006828,"INCLINATION":51.6319,"RA_OF_ASC_NODE":210.1816,"ARG_OF_PERICENTER":342.1779,"MEAN_ANOMALY":17.8969,"EPHEMERIS_TYPE":0,"CLASSIFICATION_TYPE":"U","NORAD_CAT_ID":67796,"ELEMENT_SET_NO":999,"REV_AT_EPOCH":56343,"BSTAR":0.00017870385,"MEAN_MOTION_DOT":9.382e-5,"MEAN_MOTION_DDOT":0},{"OBJECT_NAME":"PROGRESS-MS 33","OBJECT_ID":"2026-058A","EPOCH":"2026-04-23T14:51:45.400608","MEAN_MOTION":15.48913482,"ECCENTRICITY":0.0006828,"INCLINATION":51.6319,"RA_OF_ASC_NODE":210.1816,"ARG_OF_PERICENTER":342.1779,"MEAN_ANOMALY":17.8969,"EPHEMERIS_TYPE":0,"CLASSIFICATION_TYPE":"U","NORAD_CAT_ID":68319,"ELEMENT_SET_NO":999,"REV_AT_EPOCH":494,"BSTAR":0.00017870385,"MEAN_MOTION_DOT":9.382e-5,"MEAN_MOTION_DDOT":0},{"OBJECT_NAME":"CYGNUS NG-24","OBJECT_ID":"2026-079A","EPOCH":"2026-04-23T14:51:45.400608","MEAN_MOTION":15.48913482,"ECCENTRICITY":0.0006828,"INCLINATION":51.6319,"RA_OF_ASC_NODE":210.1816,"ARG_OF_PERICENTER":342.1779,"MEAN_ANOMALY":17.8969,"EPHEMERIS_TYPE":0,"CLASSIFICATION_TYPE":"U","NORAD_CAT_ID":68689,"ELEMENT_SET_NO":999,"REV_AT_EPOCH":191,"BSTAR":0.00017870385,"MEAN_MOTION_DOT":9.382e-5,"MEAN_MOTION_DDOT":0}]
